start=new Date('2023-01-28T00:00:00.000Z').valueOf();
sats=[{"FILE":"3763218","DECAY_DATE":null,"RA_OF_ASC_NODE":"146.0394","SITE":"AFETR","TLE_LINE2":"2 48293  53.0543 146.0394 0001250  91.9818 268.1314 15.06397670 96935","APOAPSIS":"548.086","REV_AT_EPOCH":"9693","MEAN_MOTION":"15.06397670","INCLINATION":"53.0543","LAUNCH_DATE":"2021-04-29","COUNTRY_CODE":"US","EPHEMERIS_TYPE":"0","REF_FRAME":"TEME","BSTAR":"0.00009623800000","SEMIMAJOR_AXIS":"6925.356","OBJECT_NAME":"STARLINK-2550","PERIAPSIS":"546.355","CLASSIFICATION_TYPE":"U","MEAN_MOTION_DOT":"0.00001152","RCS_SIZE":"LARGE","GP_ID":"223836816","EPOCH":"2023-01-27T15:23:07.780992","MEAN_MOTION_DDOT":"0.0000000000000","ARG_OF_PERICENTER":"91.9818","ECCENTRICITY":"0.00012500","PERIOD":"95.592","ELEMENT_SET_NO":"999","TLE_LINE1":"1 48293U 21036T   23027.64106228  .00001152  00000-0  96238-4 0  9992","CENTER_NAME":"EARTH","TIME_SYSTEM":"UTC","MEAN_ELEMENT_THEORY":"SGP4","OBJECT_ID":"2021-036T","NORAD_CAT_ID":"48293","OBJECT_TYPE":"PAYLOAD","MEAN_ANOMALY":"268.1314"},{"CLASSIFICATION_TYPE":"U","MEAN_MOTION_DOT":"0.00001519","RCS_SIZE":"LARGE","GP_ID":"223805381","EPOCH":"2023-01-27T13:42:16.829568","MEAN_MOTION_DDOT":"0.0000000000000","ARG_OF_PERICENTER":"80.2252","ECCENTRICITY":"0.00014780","PERIOD":"95.592","ELEMENT_SET_NO":"999","TLE_LINE1":"1 48294U 21036U   23027.57102812  .00001519  00000-0  12082-3 0  9991","CENTER_NAME":"EARTH","MEAN_ELEMENT_THEORY":"SGP4","TIME_SYSTEM":"UTC","OBJECT_ID":"2021-036U","NORAD_CAT_ID":"48294","OBJECT_TYPE":"PAYLOAD","MEAN_ANOMALY":"279.8904","FILE":"3762956","DECAY_DATE":null,"RA_OF_ASC_NODE":"146.3524","SITE":"AFETR","TLE_LINE2":"2 48294  53.0538 146.3524 0001478  80.2252 279.8904 15.06400902 96929","APOAPSIS":"548.234","REV_AT_EPOCH":"9692","INCLINATION":"53.0538","MEAN_MOTION":"15.06400902","LAUNCH_DATE":"2021-04-29","COUNTRY_CODE":"US","EPHEMERIS_TYPE":"0","REF_FRAME":"TEME","BSTAR":"0.00012082000000","SEMIMAJOR_AXIS":"6925.346","OBJECT_NAME":"STARLINK-2533","PERIAPSIS":"546.187"},{"EPOCH":"2023-01-27T15:12:31.261824","ARG_OF_PERICENTER":"89.6288","ECCENTRICITY":"0.00013030","MEAN_MOTION_DDOT":"0.0000000000000","TLE_LINE1":"1 48295U 21036V   23027.63369516  .00000586  00000-0  58242-4 0  9997","ELEMENT_SET_NO":"999","PERIOD":"95.593","CENTER_NAME":"EARTH","TIME_SYSTEM":"UTC","MEAN_ELEMENT_THEORY":"SGP4","OBJECT_ID":"2021-036V","NORAD_CAT_ID":"48295","MEAN_ANOMALY":"270.4850","OBJECT_TYPE":"PAYLOAD","CLASSIFICATION_TYPE":"U","MEAN_MOTION_DOT":"0.00000586","RCS_SIZE":"LARGE","GP_ID":"223836315","COUNTRY_CODE":"US","EPHEMERIS_TYPE":"0","BSTAR":"0.00005824200000","REF_FRAME":"TEME","OBJECT_NAME":"STARLINK-2535","SEMIMAJOR_AXIS":"6925.371","PERIAPSIS":"546.333","FILE":"3763218","DECAY_DATE":null,"SITE":"AFETR","TLE_LINE2":"2 48295  53.0536 146.0632 0001303  89.6288 270.4850 15.06392720 96930","RA_OF_ASC_NODE":"146.0632","APOAPSIS":"548.138","REV_AT_EPOCH":"9693","INCLINATION":"53.0536","MEAN_MOTION":"15.06392720","LAUNCH_DATE":"2021-04-29"},{"RCS_SIZE":"LARGE","MEAN_MOTION_DOT":"0.00001810","GP_ID":"223836565","CLASSIFICATION_TYPE":"U","OBJECT_ID":"2021-036W","TIME_SYSTEM":"UTC","MEAN_ELEMENT_THEORY":"SGP4","OBJECT_TYPE":"PAYLOAD","MEAN_ANOMALY":"275.0217","NORAD_CAT_ID":"48296","MEAN_MOTION_DDOT":"0.0000000000000","ECCENTRICITY":"0.00011470","ARG_OF_PERICENTER":"85.0903","EPOCH":"2023-01-27T15:07:12.495072","CENTER_NAME":"EARTH","PERIOD":"95.593","ELEMENT_SET_NO":"999","TLE_LINE1":"1 48296U 21036W   23027.63000573  .00001810  00000-0  14038-3 0  9998","REV_AT_EPOCH":"9693","APOAPSIS":"548.026","LAUNCH_DATE":"2021-04-29","INCLINATION":"53.0542","MEAN_MOTION":"15.06394020","DECAY_DATE":null,"FILE":"3763218","RA_OF_ASC_NODE":"146.0826","SITE":"AFETR","TLE_LINE2":"2 48296  53.0542 146.0826 0001147  85.0903 275.0217 15.06394020 96936","PERIAPSIS":"546.438","SEMIMAJOR_AXIS":"6925.367","OBJECT_NAME":"STARLINK-2546","COUNTRY_CODE":"US","REF_FRAME":"TEME","BSTAR":"0.00014038000000","EPHEMERIS_TYPE":"0"},{"PERIOD":"95.592","ELEMENT_SET_NO":"999","TLE_LINE1":"1 48297U 21036X   23027.69266347  .00001679  00000-0  13162-3 0  9998","CENTER_NAME":"EARTH","EPOCH":"2023-01-27T16:37:26.123808","MEAN_MOTION_DDOT":"0.0000000000000","ECCENTRICITY":"0.00013290","ARG_OF_PERICENTER":"97.1034","NORAD_CAT_ID":"48297","OBJECT_TYPE":"PAYLOAD","MEAN_ANOMALY":"263.0106","MEAN_ELEMENT_THEORY":"SGP4","TIME_SYSTEM":"UTC","OBJECT_ID":"2021-036X","CLASSIFICATION_TYPE":"U","GP_ID":"223837317","MEAN_MOTION_DOT":"0.00001679","RCS_SIZE":"LARGE","EPHEMERIS_TYPE":"0","REF_FRAME":"TEME","BSTAR":"0.00013162000000","COUNTRY_CODE":"US","SEMIMAJOR_AXIS":"6925.356","OBJECT_NAME":"STARLINK-2544","PERIAPSIS":"546.300","RA_OF_ASC_NODE":"145.8029","SITE":"AFETR","TLE_LINE2":"2 48297  53.0542 145.8029 0001329  97.1034 263.0106 15.06397734 96940","FILE":"3763218","DECAY_DATE":null,"MEAN_MOTION":"15.06397734","INCLINATION":"53.0542","LAUNCH_DATE":"2021-04-29","APOAPSIS":"548.141","REV_AT_EPOCH":"9694"},{"REF_FRAME":"TEME","BSTAR":"0.00013241000000","EPHEMERIS_TYPE":"0","COUNTRY_CODE":"US","PERIAPSIS":"546.189","SEMIMAJOR_AXIS":"6925.365","OBJECT_NAME":"STARLINK-2559","RA_OF_ASC_NODE":"146.4204","TLE_LINE2":"2 48298  53.0528 146.4204 0001503 104.8836 255.2319 15.06394624 96929","SITE":"AFETR","DECAY_DATE":null,"FILE":"3762956","LAUNCH_DATE":"2021-04-29","INCLINATION":"53.0528","MEAN_MOTION":"15.06394624","APOAPSIS":"548.271","REV_AT_EPOCH":"9692","CENTER_NAME":"EARTH","ELEMENT_SET_NO":"999","PERIOD":"95.592","TLE_LINE1":"1 48298U 21036Y   23027.55628703  .00001691  00000-0  13241-3 0  9994","MEAN_MOTION_DDOT":"0.0000000000000","ECCENTRICITY":"0.00015030","ARG_OF_PERICENTER":"104.8836","EPOCH":"2023-01-27T13:21:03.199392","OBJECT_TYPE":"PAYLOAD","MEAN_ANOMALY":"255.2319","NORAD_CAT_ID":"48298","OBJECT_ID":"2021-036Y","MEAN_ELEMENT_THEORY":"SGP4","TIME_SYSTEM":"UTC","CLASSIFICATION_TYPE":"U","GP_ID":"223804882","RCS_SIZE":"LARGE","MEAN_MOTION_DOT":"0.00001691"},{"APOAPSIS":"548.089","REV_AT_EPOCH":"9693","MEAN_MOTION":"15.06399549","INCLINATION":"53.0543","LAUNCH_DATE":"2021-04-29","FILE":"3763218","DECAY_DATE":null,"TLE_LINE2":"2 48299  53.0543 146.1253 0001262  80.4370 279.6761 15.06399549 96935","SITE":"AFETR","RA_OF_ASC_NODE":"146.1253","OBJECT_NAME":"STARLINK-2557","SEMIMAJOR_AXIS":"6925.350","PERIAPSIS":"546.341","COUNTRY_CODE":"US","EPHEMERIS_TYPE":"0","BSTAR":"0.00006042800000","REF_FRAME":"TEME","MEAN_MOTION_DOT":"0.00000619","RCS_SIZE":"LARGE","GP_ID":"223835815","CLASSIFICATION_TYPE":"U","TIME_SYSTEM":"UTC","MEAN_ELEMENT_THEORY":"SGP4","OBJECT_ID":"2021-036Z","NORAD_CAT_ID":"48299","MEAN_ANOMALY":"279.6761","OBJECT_TYPE":"PAYLOAD","EPOCH":"2023-01-27T14:51:16.758144","ARG_OF_PERICENTER":"80.4370","ECCENTRICITY":"0.00012620","MEAN_MOTION_DDOT":"0.0000000000000","TLE_LINE1":"1 48299U 21036Z   23027.61894396  .00000619  00000-0  60428-4 0  9994","ELEMENT_SET_NO":"999","PERIOD":"95.592","CENTER_NAME":"EARTH"},{"APOAPSIS":"548.048","REV_AT_EPOCH":"9679","LAUNCH_DATE":"2021-04-29","MEAN_MOTION":"15.06399688","INCLINATION":"53.0563","DECAY_DATE":null,"FILE":"3762956","RA_OF_ASC_NODE":"156.1613","TLE_LINE2":"2 48300  53.0563 156.1613 0001204  77.6851 282.4273 15.06399688 96797","SITE":"AFETR","PERIAPSIS":"546.381","SEMIMAJOR_AXIS":"6925.350","OBJECT_NAME":"STARLINK-2538","COUNTRY_CODE":"US","REF_FRAME":"TEME","BSTAR":"0.00011203000000","EPHEMERIS_TYPE":"0","RCS_SIZE":"LARGE","MEAN_MOTION_DOT":"0.00001388","GP_ID":"223803884","CLASSIFICATION_TYPE":"U","OBJECT_ID":"2021-036AA","TIME_SYSTEM":"UTC","MEAN_ELEMENT_THEORY":"SGP4","OBJECT_TYPE":"PAYLOAD","MEAN_ANOMALY":"282.4273","NORAD_CAT_ID":"48300","MEAN_MOTION_DDOT":"0.0000000000000","ARG_OF_PERICENTER":"77.6851","ECCENTRICITY":"0.00012040","EPOCH":"2023-01-27T14:39:20.316384","CENTER_NAME":"EARTH","PERIOD":"95.592","ELEMENT_SET_NO":"999","TLE_LINE1":"1 48300U 21036AA  23027.61065181  .00001388  00000-0  11203-3 0  9999"},{"CENTER_NAME":"EARTH","PERIOD":"95.592","ELEMENT_SET_NO":"999","TLE_LINE1":"1 48301U 21036AB  23027.67331406  .00002773  00000-0  20495-3 0  9994","MEAN_MOTION_DDOT":"0.0000000000000","ARG_OF_PERICENTER":"62.9505","ECCENTRICITY":"0.00011570","EPOCH":"2023-01-27T16:09:34.334784","OBJECT_TYPE":"PAYLOAD","MEAN_ANOMALY":"297.1602","NORAD_CAT_ID":"48301","OBJECT_ID":"2021-036AB","TIME_SYSTEM":"UTC","MEAN_ELEMENT_THEORY":"SGP4","CLASSIFICATION_TYPE":"U","GP_ID":"223836817","RCS_SIZE":"LARGE","MEAN_MOTION_DOT":"0.00002773","REF_FRAME":"TEME","BSTAR":"0.00020495000000","EPHEMERIS_TYPE":"0","COUNTRY_CODE":"US","PERIAPSIS":"546.415","SEMIMAJOR_AXIS":"6925.352","OBJECT_NAME":"STARLINK-2537","RA_OF_ASC_NODE":"155.8857","SITE":"AFETR","TLE_LINE2":"2 48301  53.0521 155.8857 0001157  62.9505 297.1602 15.06399033 96791","DECAY_DATE":null,"FILE":"3763218","LAUNCH_DATE":"2021-04-29","MEAN_MOTION":"15.06399033","INCLINATION":"53.0521","REV_AT_EPOCH":"9679","APOAPSIS":"548.018"},{"CLASSIFICATION_TYPE":"U","MEAN_MOTION_DOT":"0.00001742","RCS_SIZE":"LARGE","GP_ID":"223837568","EPOCH":"2023-01-27T16:04:15.664800","ECCENTRICITY":"0.00014170","ARG_OF_PERICENTER":"68.4725","MEAN_MOTION_DDOT":"0.0000000000000","TLE_LINE1":"1 48302U 21036AC  23027.66962575  .00001742  00000-0  13584-3 0  9997","ELEMENT_SET_NO":"999","PERIOD":"95.592","CENTER_NAME":"EARTH","MEAN_ELEMENT_THEORY":"SGP4","TIME_SYSTEM":"UTC","OBJECT_ID":"2021-036AC","NORAD_CAT_ID":"48302","MEAN_ANOMALY":"291.6415","OBJECT_TYPE":"PAYLOAD","FILE":"3763218","DECAY_DATE":null,"SITE":"AFETR","TLE_LINE2":"2 48302  53.0564 155.9008 0001417  68.4725 291.6415 15.06400845 96797","RA_OF_ASC_NODE":"155.9008","REV_AT_EPOCH":"9679","APOAPSIS":"548.192","MEAN_MOTION":"15.06400845","INCLINATION":"53.0564","LAUNCH_DATE":"2021-04-29","COUNTRY_CODE":"US","EPHEMERIS_TYPE":"0","BSTAR":"0.00013584000000","REF_FRAME":"TEME","OBJECT_NAME":"STARLINK-2556","SEMIMAJOR_AXIS":"6925.346","PERIAPSIS":"546.230"}];
